{"type": "FeatureCollection", "features": [ {"type": "Feature", "properties": {"norad_id": 33799, "name": "COSMOS 2251 DEB", "group": "cosmos-2251-debris", "lat": -1.2274634208211277, "lon": 95.07329318920061, "alt_km": 650.7286588037196, "timestamp": "2025-12-05T19:30:25.959471+00:00", "meta": {"OBJECT_NAME": "COSMOS 2251 DEB", "OBJECT_ID": "1993-036AQ", "EPOCH": "2025-12-05T00:35:37.276800", "MEAN_MOTION": 14.79383185, "ECCENTRICITY": 0.00243062, "INCLINATION": 74.032, "RA_OF_ASC_NODE": 96.9753, "ARG_OF_PERICENTER": 169.9326, "MEAN_ANOMALY": 313.6164, "EPHEMERIS_TYPE": 0, "CLASSIFICATION_TYPE": "U", "NORAD_CAT_ID": 33799, "ELEMENT_SET_NO": 999, "REV_AT_EPOCH": 88697, "BSTAR": 0.0028083535, "MEAN_MOTION_DOT": 0.00021076, "MEAN_MOTION_DDOT": 0}, "tle": {"line1": "1 33799U 93036AQ  25339.02473700  .00021076  00000+0  28084-2 0  9996", "line2": "2 33799  74.0320  96.9753 0024306 169.9326 313.6164 14.79383185886970"}}, "geometry": {"type": "Point", "coordinates": [95.07329318920061, -1.2274634208211277]}}, {"type": "Feature", "properties": {"norad_id": 33805, "name": "COSMOS 2251 DEB", "group": "cosmos-2251-debris", "lat": -44.61324586653698, "lon": -51.901040200368904, "alt_km": 746.1449452447514, "timestamp": "2025-12-05T19:30:25.959483+00:00", "meta": {"OBJECT_NAME": "COSMOS 2251 DEB", "OBJECT_ID": "1993-036AW", "EPOCH": "2025-12-05T06:32:55.955040", "MEAN_MOTION": 14.57828913, "ECCENTRICITY": 0.00605132, "INCLINATION": 74.0305, "RA_OF_ASC_NODE": 325.5362, "ARG_OF_PERICENTER": 156.6138, "MEAN_ANOMALY": 203.78, "EPHEMERIS_TYPE": 0, "CLASSIFICATION_TYPE": "U", "NORAD_CAT_ID": 33805, "ELEMENT_SET_NO": 999, "REV_AT_EPOCH": 89118, "BSTAR": 0.0004412884, "MEAN_MOTION_DOT": 2.041e-05, "MEAN_MOTION_DDOT": 0}, "tle": {"line1": "1 33805U 93036AW  25339.27286985  .00002041  00000+0  44129-3 0  9998", "line2": "2 33805  74.0305 325.5362 0060513 156.6138 203.7800 14.57828913891186"}}, "geometry": {"type": "Point", "coordinates": [-51.901040200368904, -44.61324586653698]}}, {"type": "Feature", "properties": {"norad_id": 33811, "name": "COSMOS 2251 DEB", "group": "cosmos-2251-debris", "lat": 72.71458592508215, "lon": 25.766173048139454, "alt_km": 529.2065574824255, "timestamp": "2025-12-05T19:30:25.959494+00:00", "meta": {"OBJECT_NAME": "COSMOS 2251 DEB", "OBJECT_ID": "1993-036BC", "EPOCH": "2025-12-05T06:51:35.345664", "MEAN_MOTION": 15.04900945, "ECCENTRICITY": 0.0030853, "INCLINATION": 73.8373, "RA_OF_ASC_NODE": 318.1117, "ARG_OF_PERICENTER": 40.0671, "MEAN_ANOMALY": 69.7268, "EPHEMERIS_TYPE": 0, "CLASSIFICATION_TYPE": "U", "NORAD_CAT_ID": 33811, "ELEMENT_SET_NO": 999, "REV_AT_EPOCH": 89906, "BSTAR": 0.0019608091, "MEAN_MOTION_DOT": 0.00028122, "MEAN_MOTION_DDOT": 0}, "tle": {"line1": "1 33811U 93036BC  25339.28582576  .00028122  00000+0  19608-2 0  9992", "line2": "2 33811  73.8373 318.1117 0030853  40.0671  69.7268 15.04900945899065"}}, "geometry": {"type": "Point", "coordinates": [25.766173048139454, 72.71458592508215]}}, {"type": "Feature", "properties": {"norad_id": 33815, "name": "COSMOS 2251 DEB", "group": "cosmos-2251-debris", "lat": -38.30336635689846, "lon": 24.24393742692775, "alt_km": 521.9790434456263, "timestamp": "2025-12-05T19:30:25.959506+00:00", "meta": {"OBJECT_NAME": "COSMOS 2251 DEB", "OBJECT_ID": "1993-036BG", "EPOCH": "2025-12-04T00:16:31.408896", "MEAN_MOTION": 15.14996402, "ECCENTRICITY": 0.00042403, "INCLINATION": 73.9554, "RA_OF_ASC_NODE": 194.871, "ARG_OF_PERICENTER": 242.2418, "MEAN_ANOMALY": 235.1772, "EPHEMERIS_TYPE": 0, "CLASSIFICATION_TYPE": "U", "NORAD_CAT_ID": 33815, "ELEMENT_SET_NO": 999, "REV_AT_EPOCH": 88238, "BSTAR": 0.011246177, "MEAN_MOTION_DOT": 0.00216461, "MEAN_MOTION_DDOT": 0}, "tle": {"line1": "1 33815U 93036BG  25338.01147464  .00216461  00000+0  11246-1 0  9993", "line2": "2 33815  73.9554 194.8710 0004240 242.2418 235.1772 15.14996402882385"}}, "geometry": {"type": "Point", "coordinates": [24.24393742692775, -38.30336635689846]}}, {"type": "Feature", "properties": {"norad_id": 33816, "name": "COSMOS 2251 DEB", "group": "cosmos-2251-debris", "lat": -27.53571689158745, "lon": -54.200172833130814, "alt_km": 915.1345644383155, "timestamp": "2025-12-05T19:30:25.959517+00:00", "meta": {"OBJECT_NAME": "COSMOS 2251 DEB", "OBJECT_ID": "1993-036BH", "EPOCH": "2025-12-04T18:11:59.280000", "MEAN_MOTION": 13.8176558, "ECCENTRICITY": 0.02652048, "INCLINATION": 73.8939, "RA_OF_ASC_NODE": 118.9228, "ARG_OF_PERICENTER": 133.4018, "MEAN_ANOMALY": 228.9523, "EPHEMERIS_TYPE": 0, "CLASSIFICATION_TYPE": "U", "NORAD_CAT_ID": 33816, "ELEMENT_SET_NO": 999, "REV_AT_EPOCH": 84563, "BSTAR": 0.00099483568, "MEAN_MOTION_DOT": 1.369e-05, "MEAN_MOTION_DDOT": 0}, "tle": {"line1": "1 33816U 93036BH  25338.75832500  .00001369  00000+0  99484-3 0  9998", "line2": "2 33816  73.8939 118.9228 0265204 133.4018 228.9523 13.81765580845633"}}, "geometry": {"type": "Point", "coordinates": [-54.200172833130814, -27.53571689158745]}}, {"type": "Feature", "properties": {"norad_id": 33818, "name": "COSMOS 2251 DEB", "group": "cosmos-2251-debris", "lat": -44.00395925798678, "lon": 16.558424890095342, "alt_km": 525.7211420721314, "timestamp": "2025-12-05T19:30:25.959528+00:00", "meta": {"OBJECT_NAME": "COSMOS 2251 DEB", "OBJECT_ID": "1993-036BK", "EPOCH": "2025-12-05T06:20:28.076640", "MEAN_MOTION": 15.1165843, "ECCENTRICITY": 0.00287999, "INCLINATION": 74.0748, "RA_OF_ASC_NODE": 181.6825, "ARG_OF_PERICENTER": 172.9698, "MEAN_ANOMALY": 308.7661, "EPHEMERIS_TYPE": 0, "CLASSIFICATION_TYPE": "U", "NORAD_CAT_ID": 33818, "ELEMENT_SET_NO": 999, "REV_AT_EPOCH": 89749, "BSTAR": 0.0034198404, "MEAN_MOTION_DOT": 0.00059199, "MEAN_MOTION_DDOT": 0}, "tle": {"line1": "1 33818U 93036BK  25339.26421385  .00059199  00000+0  34198-2 0  9996", "line2": "2 33818  74.0748 181.6825 0028799 172.9698 308.7661 15.11658430897495"}}, "geometry": {"type": "Point", "coordinates": [16.558424890095342, -44.00395925798678]}}, {"type": "Feature", "properties": {"norad_id": 33819, "name": "COSMOS 2251 DEB", "group": "cosmos-2251-debris", "lat": -1.3123086960751855, "lon": 42.746721355729896, "alt_km": 792.6768651117491, "timestamp": "2025-12-05T19:30:25.959539+00:00", "meta": {"OBJECT_NAME": "COSMOS 2251 DEB", "OBJECT_ID": "1993-036BL", "EPOCH": "2025-12-05T02:27:44.066304", "MEAN_MOTION": 14.32182214, "ECCENTRICITY": 0.0088776, "INCLINATION": 74.1797, "RA_OF_ASC_NODE": 223.6586, "ARG_OF_PERICENTER": 87.2948, "MEAN_ANOMALY": 32.691, "EPHEMERIS_TYPE": 0, "CLASSIFICATION_TYPE": "U", "NORAD_CAT_ID": 33819, "ELEMENT_SET_NO": 999, "REV_AT_EPOCH": 87386, "BSTAR": 0.0014075368, "MEAN_MOTION_DOT": 3.937e-05, "MEAN_MOTION_DDOT": 0}, "tle": {"line1": "1 33819U 93036BL  25339.10259336  .00003937  00000+0  14075-2 0  9996", "line2": "2 33819  74.1797 223.6586 0088776  87.2948  32.6910 14.32182214873868"}}, "geometry": {"type": "Point", "coordinates": [42.746721355729896, -1.3123086960751855]}}, {"type": "Feature", "properties": {"norad_id": 33821, "name": "COSMOS 2251 DEB", "group": "cosmos-2251-debris", "lat": 61.03967538997648, "lon": -171.35956001668117, "alt_km": 507.65489724361123, "timestamp": "2025-12-05T19:30:25.959550+00:00", "meta": {"OBJECT_NAME": "COSMOS 2251 DEB", "OBJECT_ID": "1993-036BN", "EPOCH": "2025-12-04T22:44:44.011104", "MEAN_MOTION": 15.24617019, "ECCENTRICITY": 0.0053892, "INCLINATION": 74.0288, "RA_OF_ASC_NODE": 159.3002, "ARG_OF_PERICENTER": 194.8404, "MEAN_ANOMALY": 165.1218, "EPHEMERIS_TYPE": 0, "CLASSIFICATION_TYPE": "U", "NORAD_CAT_ID": 33821, "ELEMENT_SET_NO": 999, "REV_AT_EPOCH": 74882, "BSTAR": 0.0018869, "MEAN_MOTION_DOT": 0.000488, "MEAN_MOTION_DDOT": 0}, "tle": {"line1": "1 33821U 93036BN  25338.94773161  .00048800  00000+0  18869-2 0  9990", "line2": "2 33821  74.0288 159.3002 0053892 194.8404 165.1218 15.24617019748824"}}, "geometry": {"type": "Point", "coordinates": [-171.35956001668117, 61.03967538997648]}}, {"type": "Feature", "properties": {"norad_id": 33822, "name": "COSMOS 2251 DEB", "group": "cosmos-2251-debris", "lat": 53.86179796787134, "lon": 2.8862427368794603, "alt_km": 915.6616926340412, "timestamp": "2025-12-05T19:30:25.959562+00:00", "meta": {"OBJECT_NAME": "COSMOS 2251 DEB", "OBJECT_ID": "1993-036BP", "EPOCH": "2025-12-05T02:30:53.227872", "MEAN_MOTION": 14.13014768, "ECCENTRICITY": 0.01539376, "INCLINATION": 74.07, "RA_OF_ASC_NODE": 207.1593, "ARG_OF_PERICENTER": 255.2667, "MEAN_ANOMALY": 228.7187, "EPHEMERIS_TYPE": 0, "CLASSIFICATION_TYPE": "U", "NORAD_CAT_ID": 33822, "ELEMENT_SET_NO": 999, "REV_AT_EPOCH": 85946, "BSTAR": 0.0026550755, "MEAN_MOTION_DOT": 5.521e-05, "MEAN_MOTION_DDOT": 0}, "tle": {"line1": "1 33822U 93036BP  25339.10478273  .00005521  00000+0  26551-2 0  9996", "line2": "2 33822  74.0700 207.1593 0153937 255.2667 228.7187 14.13014768859468"}}, "geometry": {"type": "Point", "coordinates": [2.8862427368794603, 53.86179796787134]}}, {"type": "Feature", "properties": {"norad_id": 33823, "name": "COSMOS 2251 DEB", "group": "cosmos-2251-debris", "lat": -58.115099613805434, "lon": 133.6271695382567, "alt_km": 754.2824816754046, "timestamp": "2025-12-05T19:30:25.959572+00:00", "meta": {"OBJECT_NAME": "COSMOS 2251 DEB", "OBJECT_ID": "1993-036BQ", "EPOCH": "2025-12-05T06:57:40.969728", "MEAN_MOTION": 13.98921806, "ECCENTRICITY": 0.02092509, "INCLINATION": 73.8087, "RA_OF_ASC_NODE": 162.3861, "ARG_OF_PERICENTER": 288.7453, "MEAN_ANOMALY": 257.1484, "EPHEMERIS_TYPE": 0, "CLASSIFICATION_TYPE": "U", "NORAD_CAT_ID": 33823, "ELEMENT_SET_NO": 999, "REV_AT_EPOCH": 85505, "BSTAR": 0.0011945628, "MEAN_MOTION_DOT": 2.053e-05, "MEAN_MOTION_DDOT": 0}, "tle": {"line1": "1 33823U 93036BQ  25339.29005752  .00002053  00000+0  11946-2 0  9994", "line2": "2 33823  73.8087 162.3861 0209250 288.7453 257.1484 13.98921806855057"}}, "geometry": {"type": "Point", "coordinates": [133.6271695382567, -58.115099613805434]}}]}